CCSDS_OMM_VERS = 2.0
CREATION_DATE  = 
ORIGINATOR     = 

OBJECT_NAME    = HTV-X1
OBJECT_ID      = 2025-241A
CENTER_NAME    = EARTH
REF_FRAME      = TEME
TIME_SYSTEM    = UTC
MEAN_ELEMENT_THEORY = SGP/SGP4

EPOCH          = 2026-04-02T07:43:54.761376
MEAN_MOTION    = 15.32498869
ECCENTRICITY   = .00072321
INCLINATION    = 51.6372
RA_OF_ASC_NODE = 319.1601
ARG_OF_PERICENTER = 263.7967
MEAN_ANOMALY   = 96.2190

EPHEMERIS_TYPE = 0
CLASSIFICATION_TYPE = U
NORAD_CAT_ID   = 66174
ELEMENT_SET_NO = 999
REV_AT_EPOCH   = 2456
BSTAR          = .74806522E-4
MEAN_MOTION_DOT = .2012E-4
MEAN_MOTION_DDOT = 0

CCSDS_OMM_VERS = 2.0
CREATION_DATE  = 
ORIGINATOR     = 

OBJECT_NAME    = SZ-21 MODULE
OBJECT_ID      = 2025-246C
CENTER_NAME    = EARTH
REF_FRAME      = TEME
TIME_SYSTEM    = UTC
MEAN_ELEMENT_THEORY = SGP/SGP4

EPOCH          = 2026-04-02T05:39:02.937888
MEAN_MOTION    = 15.70445326
ECCENTRICITY   = .00026896
INCLINATION    = 41.4744
RA_OF_ASC_NODE = 58.2163
ARG_OF_PERICENTER = 222.0292
MEAN_ANOMALY   = 138.0345

EPHEMERIS_TYPE = 0
CLASSIFICATION_TYPE = U
NORAD_CAT_ID   = 66515
ELEMENT_SET_NO = 999
REV_AT_EPOCH   = 2177
BSTAR          = .41273011E-3
MEAN_MOTION_DOT = .52107E-3
MEAN_MOTION_DDOT = 0

CCSDS_OMM_VERS = 2.0
CREATION_DATE  = 
ORIGINATOR     = 

OBJECT_NAME    = SHENZHOU-22
OBJECT_ID      = 2025-272A
CENTER_NAME    = EARTH
REF_FRAME      = TEME
TIME_SYSTEM    = UTC
MEAN_ELEMENT_THEORY = SGP/SGP4

EPOCH          = 2026-04-01T08:38:43.102176
MEAN_MOTION    = 15.61804306
ECCENTRICITY   = .00037219
INCLINATION    = 41.4670
RA_OF_ASC_NODE = 70.0996
ARG_OF_PERICENTER = 85.9086
MEAN_ANOMALY   = 274.2179

EPHEMERIS_TYPE = 0
CLASSIFICATION_TYPE = U
NORAD_CAT_ID   = 66645
ELEMENT_SET_NO = 999
REV_AT_EPOCH   = 28115
BSTAR          = .27286117E-3
MEAN_MOTION_DOT = .24066E-3
MEAN_MOTION_DDOT = 0

CCSDS_OMM_VERS = 2.0
CREATION_DATE  = 
ORIGINATOR     = 

OBJECT_NAME    = SOYUZ-MS 28
OBJECT_ID      = 2025-275A
CENTER_NAME    = EARTH
REF_FRAME      = TEME
TIME_SYSTEM    = UTC
MEAN_ELEMENT_THEORY = SGP/SGP4

EPOCH          = 2026-04-02T03:12:11.610144
MEAN_MOTION    = 15.48713693
ECCENTRICITY   = .00062399
INCLINATION    = 51.6331
RA_OF_ASC_NODE = 316.4579
ARG_OF_PERICENTER = 262.1298
MEAN_ANOMALY   = 97.8982

EPHEMERIS_TYPE = 0
CLASSIFICATION_TYPE = U
NORAD_CAT_ID   = 66664
ELEMENT_SET_NO = 999
REV_AT_EPOCH   = 55986
BSTAR          = .20754706E-3
MEAN_MOTION_DOT = .10892E-3
MEAN_MOTION_DDOT = 0

CCSDS_OMM_VERS = 2.0
CREATION_DATE  = 
ORIGINATOR     = 

OBJECT_NAME    = DUPLEX
OBJECT_ID      = 1998-067XS
CENTER_NAME    = EARTH
REF_FRAME      = TEME
TIME_SYSTEM    = UTC
MEAN_ELEMENT_THEORY = SGP/SGP4

EPOCH          = 2026-04-01T21:14:34.850112
MEAN_MOTION    = 15.57773370
ECCENTRICITY   = .0003086
INCLINATION    = 51.6290
RA_OF_ASC_NODE = 313.3003
ARG_OF_PERICENTER = 220.5371
MEAN_ANOMALY   = 139.5391

EPHEMERIS_TYPE = 0
CLASSIFICATION_TYPE = U
NORAD_CAT_ID   = 66906
ELEMENT_SET_NO = 999
REV_AT_EPOCH   = 1874
BSTAR          = .43265E-3
MEAN_MOTION_DOT = .32412E-3
MEAN_MOTION_DDOT = 0

CCSDS_OMM_VERS = 2.0
CREATION_DATE  = 
ORIGINATOR     = 

OBJECT_NAME    = ISS OBJECT XT
OBJECT_ID      = 1998-067XT
CENTER_NAME    = EARTH
REF_FRAME      = TEME
TIME_SYSTEM    = UTC
MEAN_ELEMENT_THEORY = SGP/SGP4

EPOCH          = 2026-04-01T21:24:26.654688
MEAN_MOTION    = 15.78433810
ECCENTRICITY   = .00067499
INCLINATION    = 51.6226
RA_OF_ASC_NODE = 306.5524
ARG_OF_PERICENTER = 231.8821
MEAN_ANOMALY   = 128.1571

EPHEMERIS_TYPE = 0
CLASSIFICATION_TYPE = U
NORAD_CAT_ID   = 66907
ELEMENT_SET_NO = 999
REV_AT_EPOCH   = 1883
BSTAR          = .14894943E-2
MEAN_MOTION_DOT = .271653E-2
MEAN_MOTION_DDOT = 0

CCSDS_OMM_VERS = 2.0
CREATION_DATE  = 
ORIGINATOR     = 

OBJECT_NAME    = ISS OBJECT XU
OBJECT_ID      = 1998-067XU
CENTER_NAME    = EARTH
REF_FRAME      = TEME
TIME_SYSTEM    = UTC
MEAN_ELEMENT_THEORY = SGP/SGP4

EPOCH          = 2026-04-01T21:17:58.200288
MEAN_MOTION    = 15.78743702
ECCENTRICITY   = .00069709
INCLINATION    = 51.6227
RA_OF_ASC_NODE = 306.5178
ARG_OF_PERICENTER = 231.5533
MEAN_ANOMALY   = 128.4842

EPHEMERIS_TYPE = 0
CLASSIFICATION_TYPE = U
NORAD_CAT_ID   = 66908
ELEMENT_SET_NO = 999
REV_AT_EPOCH   = 1883
BSTAR          = .15333196E-2
MEAN_MOTION_DOT = .284033E-2
MEAN_MOTION_DDOT = 0

CCSDS_OMM_VERS = 2.0
CREATION_DATE  = 
ORIGINATOR     = 

OBJECT_NAME    = SILVERSAT
OBJECT_ID      = 1998-067XV
CENTER_NAME    = EARTH
REF_FRAME      = TEME
TIME_SYSTEM    = UTC
MEAN_ELEMENT_THEORY = SGP/SGP4

EPOCH          = 2026-04-02T00:22:43.751424
MEAN_MOTION    = 15.85122175
ECCENTRICITY   = .00083131
INCLINATION    = 51.6185
RA_OF_ASC_NODE = 304.3569
ARG_OF_PERICENTER = 239.9802
MEAN_ANOMALY   = 120.0377

EPHEMERIS_TYPE = 0
CLASSIFICATION_TYPE = U
NORAD_CAT_ID   = 66909
ELEMENT_SET_NO = 999
REV_AT_EPOCH   = 1887
BSTAR          = .166537E-2
MEAN_MOTION_DOT = .42222E-2
MEAN_MOTION_DDOT = 0

CCSDS_OMM_VERS = 2.0
CREATION_DATE  = 
ORIGINATOR     = 

OBJECT_NAME    = ISS OBJECT XW
OBJECT_ID      = 1998-067XW
CENTER_NAME    = EARTH
REF_FRAME      = TEME
TIME_SYSTEM    = UTC
MEAN_ELEMENT_THEORY = SGP/SGP4

EPOCH          = 2026-04-01T23:11:54.988224
MEAN_MOTION    = 15.76710438
ECCENTRICITY   = .0007046
INCLINATION    = 51.6211
RA_OF_ASC_NODE = 306.2930
ARG_OF_PERICENTER = 228.1429
MEAN_ANOMALY   = 131.8970

EPHEMERIS_TYPE = 0
CLASSIFICATION_TYPE = U
NORAD_CAT_ID   = 66910
ELEMENT_SET_NO = 999
REV_AT_EPOCH   = 1884
BSTAR          = .13372E-2
MEAN_MOTION_DOT = .224524E-2
MEAN_MOTION_DDOT = 0

CCSDS_OMM_VERS = 2.0
CREATION_DATE  = 
ORIGINATOR     = 

OBJECT_NAME    = ISS OBJECT XX
OBJECT_ID      = 1998-067XX
CENTER_NAME    = EARTH
REF_FRAME      = TEME
TIME_SYSTEM    = UTC
MEAN_ELEMENT_THEORY = SGP/SGP4

EPOCH          = 2026-04-01T21:00:05.872608
MEAN_MOTION    = 15.93473578
ECCENTRICITY   = .00102784
INCLINATION    = 51.6164
RA_OF_ASC_NODE = 303.3744
ARG_OF_PERICENTER = 244.1070
MEAN_ANOMALY   = 115.8878

EPHEMERIS_TYPE = 0
CLASSIFICATION_TYPE = U
NORAD_CAT_ID   = 66911
ELEMENT_SET_NO = 999
REV_AT_EPOCH   = 1886
BSTAR          = .17622444E-2
MEAN_MOTION_DOT = .647261E-2
MEAN_MOTION_DDOT = .18197289E-3

CCSDS_OMM_VERS = 2.0
CREATION_DATE  = 
ORIGINATOR     = 

OBJECT_NAME    = ISS OBJECT XY
OBJECT_ID      = 1998-067XY
CENTER_NAME    = EARTH
REF_FRAME      = TEME
TIME_SYSTEM    = UTC
MEAN_ELEMENT_THEORY = SGP/SGP4

EPOCH          = 2026-04-02T07:39:49.260960
MEAN_MOTION    = 15.68746730
ECCENTRICITY   = .00047246
INCLINATION    = 51.6260
RA_OF_ASC_NODE = 307.1846
ARG_OF_PERICENTER = 228.4788
MEAN_ANOMALY   = 131.5804

EPHEMERIS_TYPE = 0
CLASSIFICATION_TYPE = U
NORAD_CAT_ID   = 66912
ELEMENT_SET_NO = 999
REV_AT_EPOCH   = 1885
BSTAR          = .12969542E-2
MEAN_MOTION_DOT = .15355E-2
MEAN_MOTION_DDOT = 0

CCSDS_OMM_VERS = 2.0
CREATION_DATE  = 
ORIGINATOR     = 

OBJECT_NAME    = KNACKSAT-2
OBJECT_ID      = 1998-067XZ
CENTER_NAME    = EARTH
REF_FRAME      = TEME
TIME_SYSTEM    = UTC
MEAN_ELEMENT_THEORY = SGP/SGP4

EPOCH          = 2026-04-02T00:35:52.009728
MEAN_MOTION    = 15.53816312
ECCENTRICITY   = .00103577
INCLINATION    = 51.6312
RA_OF_ASC_NODE = 315.7350
ARG_OF_PERICENTER = 271.4198
MEAN_ANOMALY   = 88.5606

EPHEMERIS_TYPE = 0
CLASSIFICATION_TYPE = U
NORAD_CAT_ID   = 67683
ELEMENT_SET_NO = 999
REV_AT_EPOCH   = 841
BSTAR          = .70546081E-3
MEAN_MOTION_DOT = .46055E-3
MEAN_MOTION_DDOT = 0

