HTV-X1                  
1 66174U 25241A   26092.32216159  .00002012  00000+0  74807-4 0  9990
2 66174  51.6372 319.1601 0007232 263.7967  96.2190 15.32498869 24564
SZ-21 MODULE            
1 66515U 25246C   26092.23545067  .00052107  00000+0  41273-3 0  9997
2 66515  41.4744  58.2163 0002689 222.0292 138.0345 15.70445326 21776
SHENZHOU-22             
1 66645U 25272A   26091.36022109  .00024066  00000+0  27286-3 0  9991
2 66645  41.4670  70.0996 0003721  85.9086 274.2179 15.61804306281154
SOYUZ-MS 28             
1 66664U 25275A   26092.13346771  .00010892  00000+0  20755-3 0  9991
2 66664  51.6331 316.4579 0006239 262.1298  97.8982 15.48713693559867
DUPLEX                  
1 66906U 98067XS  26091.88512558  .00032412  00000+0  43265-3 0  9991
2 66906  51.6290 313.3003 0003086 220.5371 139.5391 15.57773370 18748
ISS OBJECT XT           
1 66907U 98067XT  26091.89197517  .00271653  00000+0  14895-2 0  9995
2 66907  51.6226 306.5524 0006749 231.8821 128.1571 15.78433810 18833
ISS OBJECT XU           
1 66908U 98067XU  26091.88747917  .00284033  00000+0  15333-2 0  9994
2 66908  51.6227 306.5178 0006970 231.5533 128.4842 15.78743702 18831
SILVERSAT               
1 66909U 98067XV  26092.01578416  .00422220  00000+0  16654-2 0  9996
2 66909  51.6185 304.3569 0008313 239.9802 120.0377 15.85122175 18877
ISS OBJECT XW           
1 66910U 98067XW  26091.96660866  .00224524  00000+0  13372-2 0  9993
2 66910  51.6211 306.2930 0007046 228.1429 131.8970 15.76710438 18840
ISS OBJECT XX           
1 66911U 98067XX  26091.87506797  .00647261  18197-3  17622-2 0  9995
2 66911  51.6164 303.3744 0010278 244.1070 115.8878 15.93473578 18861
ISS OBJECT XY           
1 66912U 98067XY  26092.31932015  .00153550  00000+0  12970-2 0  9996
2 66912  51.6260 307.1846 0004724 228.4788 131.5804 15.68746730 18852
KNACKSAT-2              
1 67683U 98067XZ  26092.02490752  .00046055  00000+0  70546-3 0  9992
2 67683  51.6312 315.7350 0010357 271.4198  88.5606 15.53816312  8413
